{
  "type": "FeatureCollection",
  "features": [
    {
      "type": "Feature",
      "properties": {
        "norad_id": 63772,
        "name": "BIOMASS",
        "group": "resource",
        "lat": -30.759527892881753,
        "lon": 173.10822682346907,
        "alt_km": 675.2450939155251,
        "timestamp": "2025-12-09T04:51:47.165525+00:00",
        "meta_object_name": "BIOMASS",
        "meta_object_id": "2025-090A",
        "meta_epoch": "2025-12-08T19:11:10.588704",
        "meta_mean_motion": 14.67534213,
        "meta_eccentricity": 0.0001256,
        "meta_inclination": 98.07,
        "meta_ra_of_asc_node": 167.8671,
        "meta_arg_of_pericenter": 79.5046,
        "meta_mean_anomaly": 280.63,
        "meta_ephemeris_type": 0,
        "meta_classification_type": "U",
        "meta_norad_cat_id": 63772,
        "meta_element_set_no": 999,
        "meta_rev_at_epoch": 3276,
        "meta_bstar": 0.00052678,
        "meta_mean_motion_dot": 2.94e-05,
        "meta_mean_motion_ddot": 0,
        "tle_line1": "1 63772U 25090A   25342.79942811  .00002940  00000+0  52678-3 0  9993",
        "tle_line2": "2 63772  98.0700 167.8671 0001256  79.5046 280.6300 14.67534213 32765"
      },
      "geometry": {
        "type": "Point",
        "coordinates": [
          173.10822682346907,
          -30.759527892881753
        ]
      }
    },
    {
      "type": "Feature",
      "properties": {
        "norad_id": 64694,
        "name": "GOSAT-GW (IBUKI GW)",
        "group": "resource",
        "lat": 1.621039696788119,
        "lon": 99.00897390512283,
        "alt_km": 671.7611523656924,
        "timestamp": "2025-12-09T04:51:47.165535+00:00",
        "meta_object_name": "GOSAT-GW (IBUKI GW)",
        "meta_object_id": "2025-141A",
        "meta_epoch": "2025-12-08T18:14:08.042784",
        "meta_mean_motion": 14.67565462,
        "meta_eccentricity": 0.0001495,
        "meta_inclination": 98.0423,
        "meta_ra_of_asc_node": 278.345,
        "meta_arg_of_pericenter": 82.5315,
        "meta_mean_anomaly": 277.6059,
        "meta_ephemeris_type": 0,
        "meta_classification_type": "U",
        "meta_norad_cat_id": 64694,
        "meta_element_set_no": 999,
        "meta_rev_at_epoch": 2391,
        "meta_bstar": 0.00038232,
        "meta_mean_motion_dot": 2.122e-05,
        "meta_mean_motion_ddot": 0,
        "tle_line1": "1 64694U 25141A   25342.75981531  .00002122  00000+0  38232-3 0  9994",
        "tle_line2": "2 64694  98.0423 278.3450 0001495  82.5315 277.6059 14.67565462 23916"
      },
      "geometry": {
        "type": "Point",
        "coordinates": [
          99.00897390512283,
          1.621039696788119
        ]
      }
    },
    {
      "type": "Feature",
      "properties": {
        "norad_id": 64876,
        "name": "IONOSFERA-M 3",
        "group": "resource",
        "lat": 46.26660128130992,
        "lon": -63.908118853527036,
        "alt_km": 814.8207165781423,
        "timestamp": "2025-12-09T04:51:47.165547+00:00",
        "meta_object_name": "IONOSFERA-M 3",
        "meta_object_id": "2025-155A",
        "meta_epoch": "2025-12-08T20:11:46.072608",
        "meta_mean_motion": 14.21439685,
        "meta_eccentricity": 0.0002319,
        "meta_inclination": 98.5779,
        "meta_ra_of_asc_node": 304.8181,
        "meta_arg_of_pericenter": 66.1405,
        "meta_mean_anomaly": 294.0016,
        "meta_ephemeris_type": 0,
        "meta_classification_type": "U",
        "meta_norad_cat_id": 64876,
        "meta_element_set_no": 999,
        "meta_rev_at_epoch": 1936,
        "meta_bstar": 0.0001091,
        "meta_mean_motion_dot": 1.96e-06,
        "meta_mean_motion_ddot": 0,
        "tle_line1": "1 64876U 25155A   25342.84150547  .00000196  00000+0  10910-3 0  9998",
        "tle_line2": "2 64876  98.5779 304.8181 0002319  66.1405 294.0016 14.21439685 19364"
      },
      "geometry": {
        "type": "Point",
        "coordinates": [
          -63.908118853527036,
          46.26660128130992
        ]
      }
    },
    {
      "type": "Feature",
      "properties": {
        "norad_id": 64877,
        "name": "IONOSFERA-M 4",
        "group": "resource",
        "lat": -47.06277829797318,
        "lon": 115.75300538138043,
        "alt_km": 828.3902659748901,
        "timestamp": "2025-12-09T04:51:47.165557+00:00",
        "meta_object_name": "IONOSFERA-M 4",
        "meta_object_id": "2025-155B",
        "meta_epoch": "2025-12-08T21:02:16.035072",
        "meta_mean_motion": 14.2144078,
        "meta_eccentricity": 0.0001676,
        "meta_inclination": 98.5778,
        "meta_ra_of_asc_node": 304.7717,
        "meta_arg_of_pericenter": 67.2162,
        "meta_mean_anomaly": 292.9193,
        "meta_ephemeris_type": 0,
        "meta_classification_type": "U",
        "meta_norad_cat_id": 64877,
        "meta_element_set_no": 999,
        "meta_rev_at_epoch": 1936,
        "meta_bstar": 0.000107,
        "meta_mean_motion_dot": 1.91e-06,
        "meta_mean_motion_ddot": 0,
        "tle_line1": "1 64877U 25155B   25342.87657448  .00000191  00000+0  10700-3 0  9996",
        "tle_line2": "2 64877  98.5778 304.7717 0001676  67.2162 292.9193 14.21440780 19366"
      },
      "geometry": {
        "type": "Point",
        "coordinates": [
          115.75300538138043,
          -47.06277829797318
        ]
      }
    },
    {
      "type": "Feature",
      "properties": {
        "norad_id": 64899,
        "name": "MICROCARB",
        "group": "resource",
        "lat": 78.20959373146572,
        "lon": -79.0193989505582,
        "alt_km": 640.7179524821231,
        "timestamp": "2025-12-09T04:51:47.165567+00:00",
        "meta_object_name": "MICROCARB",
        "meta_object_id": "2025-156A",
        "meta_epoch": "2025-12-08T18:37:40.673280",
        "meta_mean_motion": 14.72048184,
        "meta_eccentricity": 0.0016885,
        "meta_inclination": 98.0029,
        "meta_ra_of_asc_node": 58.1851,
        "meta_arg_of_pericenter": 156.9107,
        "meta_mean_anomaly": 203.2863,
        "meta_ephemeris_type": 0,
        "meta_classification_type": "U",
        "meta_norad_cat_id": 64899,
        "meta_element_set_no": 999,
        "meta_rev_at_epoch": 1995,
        "meta_bstar": 0.00024354,
        "meta_mean_motion_dot": 1.484e-05,
        "meta_mean_motion_ddot": 0,
        "tle_line1": "1 64899U 25156A   25342.77616520  .00001484  00000+0  24354-3 0  9992",
        "tle_line2": "2 64899  98.0029  58.1851 0016885 156.9107 203.2863 14.72048184 19958"
      },
      "geometry": {
        "type": "Point",
        "coordinates": [
          -79.0193989505582,
          78.20959373146572
        ]
      }
    },
    {
      "type": "Feature",
      "properties": {
        "norad_id": 64900,
        "name": "CO3D 3",
        "group": "resource",
        "lat": -67.16820211060096,
        "lon": -138.44721465490883,
        "alt_km": 513.2424509730563,
        "timestamp": "2025-12-09T04:51:47.165577+00:00",
        "meta_object_name": "CO3D 3",
        "meta_object_id": "2025-156B",
        "meta_epoch": "2025-12-08T18:17:44.446272",
        "meta_mean_motion": 15.2019842,
        "meta_eccentricity": 0.0001356,
        "meta_inclination": 97.4341,
        "meta_ra_of_asc_node": 59.1865,
        "meta_arg_of_pericenter": 106.1908,
        "meta_mean_anomaly": 253.9476,
        "meta_ephemeris_type": 0,
        "meta_classification_type": "U",
        "meta_norad_cat_id": 64900,
        "meta_element_set_no": 999,
        "meta_rev_at_epoch": 2060,
        "meta_bstar": 0.00045813,
        "meta_mean_motion_dot": 9.862e-05,
        "meta_mean_motion_ddot": 0,
        "tle_line1": "1 64900U 25156B   25342.76231998  .00009862  00000+0  45813-3 0  9997",
        "tle_line2": "2 64900  97.4341  59.1865 0001356 106.1908 253.9476 15.20198420 20609"
      },
      "geometry": {
        "type": "Point",
        "coordinates": [
          -138.44721465490883,
          -67.16820211060096
        ]
      }
    },
    {
      "type": "Feature",
      "properties": {
        "norad_id": 64901,
        "name": "CO3D 4",
        "group": "resource",
        "lat": -66.37256534130951,
        "lon": -137.74552837566736,
        "alt_km": 511.8400374583689,
        "timestamp": "2025-12-09T04:51:47.165587+00:00",
        "meta_object_name": "CO3D 4",
        "meta_object_id": "2025-156C",
        "meta_epoch": "2025-12-08T19:52:44.548896",
        "meta_mean_motion": 15.20203235,
        "meta_eccentricity": 0.0001046,
        "meta_inclination": 97.434,
        "meta_ra_of_asc_node": 59.2517,
        "meta_arg_of_pericenter": 219.5308,
        "meta_mean_anomaly": 140.5851,
        "meta_ephemeris_type": 0,
        "meta_classification_type": "U",
        "meta_norad_cat_id": 64901,
        "meta_element_set_no": 999,
        "meta_rev_at_epoch": 2061,
        "meta_bstar": 0.0004753,
        "meta_mean_motion_dot": 0.00010236,
        "meta_mean_motion_ddot": 0,
        "tle_line1": "1 64901U 25156C   25342.82829339  .00010236  00000+0  47530-3 0  9992",
        "tle_line2": "2 64901  97.4340  59.2517 0001046 219.5308 140.5851 15.20203235 20613"
      },
      "geometry": {
        "type": "Point",
        "coordinates": [
          -137.74552837566736,
          -66.37256534130951
        ]
      }
    }
  ]
}